NORAD_CAT_ID,OBJECT_NAME,OBJECT_TYPE,EPOCH,MEAN_MOTION,ECCENTRICITY,INCLINATION,RA_OF_ASC_NODE,ARG_OF_PERICENTER,MEAN_ANOMALY,BSTAR,MEAN_MOTION_DOT,MEAN_MOTION_DDOT,TLE_LINE0,TLE_LINE1,TLE_LINE2,SEMIMAJOR_AXIS,PERIOD,APOGEE,PERIGEE,DECAYED
53426.0,STARLINK-4558,PAYLOAD,2022-10-18 00:00:00,15.52763598,0.0001177,53.2177,268.1403,105.3505,351.4311,-0.019875,-0.01128691,0.0,0 STARLINK-4558,1 53426U 22097AQ  22291.00001157 -.01128691  00000-0 -19875-1 0  9991,2 53426  53.2177 268.1403 0001177 105.3505 351.4311 15.52763598 11254,6786.7980000000025,92.738,409.462,407.865,0.0
53426.0,STARLINK-4558,PAYLOAD,2022-10-18 14:00:01,15.51342523,0.000122,53.2173,265.3441,106.2713,11.6487,-0.021058,-0.01135183,0.0,0 STARLINK-4558,1 53426U 22097AQ  22291.58334491 -.01135183  00000-0 -21058-1 0  9994,2 53426  53.2173 265.3441 0001220 106.2713  11.6487 15.51342523  1305,6790.941999999999,92.823,413.636,411.979,0.0
53426.0,STARLINK-4558,PAYLOAD,2022-10-18 22:00:00,15.5039524,0.0001223,53.2168,263.7483,95.1991,84.9002,-0.011132,-0.0059702,0.0,0 STARLINK-4558,1 53426U 22097AQ  22291.91667824 -.00597020  00000-0 -11132-1 0  9993,2 53426  53.2168 263.7483 0001223  95.1991  84.9002 15.50395240  1303,6793.708000000001,92.88,416.404,414.742,0.0
53426.0,STARLINK-4558,PAYLOAD,2022-10-19 08:00:01,15.50025545,0.0001389,53.2153,261.7611,95.749,250.8328,-0.0050167,-0.0027673,0.0,0 STARLINK-4558,1 53426U 22097AQ  22292.33334491 -.00276730  00000-0 -50167-2 0  9995,2 53426  53.2153 261.7611 0001389  95.7490 250.8328 15.50025545 11451,6794.788000000001,92.902,417.597,415.71,0.0
53426.0,STARLINK-4558,PAYLOAD,2022-10-19 14:00:01,15.49777392,0.0001259,53.2163,260.5631,104.313,198.0357,0.0027034,0.00155473,0.0,0 STARLINK-4558,1 53426U 22097AQ  22292.58334491  .00155473  00000-0  27034-2 0  9997,2 53426  53.2163 260.5631 0001259 104.3130 198.0357 15.49777392  1305,6795.514,92.917,418.234,416.523,0.0
53426.0,STARLINK-4558,PAYLOAD,2022-10-19 22:00:00,15.49935712,0.0001167999999999,53.2138,258.9723,100.2606,263.0233,-0.0006332,-0.00036287,0.0,0 STARLINK-4558,1 53426U 22097AQ  22292.91667824 -.00036287  00000-0 -63320-3 0  9995,2 53426  53.2138 258.9723 0001168 100.2606 263.0233 15.49935712 11547,6795.051,92.907,417.71,416.122,0.0
53426.0,STARLINK-4558,PAYLOAD,2022-10-20 08:00:01,15.49918649,0.0001247,53.2159,256.9806,84.3052,85.1647,-0.012077,-0.00633799,0.0,0 STARLINK-4558,1 53426U 22097AQ  22293.33334491 -.00633799  00000-0 -12077-1 0  9995,2 53426  53.2159 256.9806 0001247  84.3052  85.1647 15.49918649 11615,6795.101,92.908,417.81300000000016,416.11800000000005,0.0
53426.0,STARLINK-4558,PAYLOAD,2022-10-20 14:00:01,15.49734152,0.0001289,53.2169,255.783,82.9936,41.9957,-0.019482,-0.01003816,0.0,0 STARLINK-4558,1 53426U 22097AQ  22293.58334491 -.01003816  00000-0 -19482-1 0  9991,2 53426  53.2169 255.7830 0001289  82.9936  41.9957 15.49734152  1305,6795.64,92.919,418.381,416.629,0.0
53426.0,STARLINK-4558,PAYLOAD,2022-10-20 22:00:00,15.49010147,0.0001421,53.2177,254.1896,115.0478,70.2428,-0.022713,-0.01144016,0.0,0 STARLINK-4558,1 53426U 22097AQ  22293.91667824 -.01144016  00000-0 -22713-1 0  9996,2 53426  53.2177 254.1896 0001421 115.0478  70.2428 15.49010147 11700,6797.757,92.963,420.588,418.657,0.0
53426.0,STARLINK-4558,PAYLOAD,2022-10-21 14:00:01,15.47384301,0.0001125999999999,53.2174,251.0121,88.4726,214.5681,-0.024138,-0.01147788,0.0,0 STARLINK-4558,1 53426U 22097AQ  22294.58334491 -.01147788  00000-0 -24138-1 0  9993,2 53426  53.2174 251.0121 0001126  88.4726 214.5681 15.47384301  1308,6802.518,93.06,425.149,423.617,0.0
53426.0,STARLINK-4558,PAYLOAD,2022-10-21 22:00:00,15.46571018,0.0001068,53.2167,249.4262,89.6131,270.835,-0.024802,-0.01146495,0.0,0 STARLINK-4558,1 53426U 22097AQ  22294.91667824 -.01146495  00000-0 -24802-1 0  9991,2 53426  53.2167 249.4262 0001068  89.6131 270.8350 15.46571018  1316,6804.903,93.109,427.495,426.041,0.0
53426.0,STARLINK-4558,PAYLOAD,2022-10-22 14:00:01,15.44939885,0.0001192,53.2172,246.2599,89.8791,22.4545,-0.026125,-0.01141909,0.0,0 STARLINK-4558,1 53426U 22097AQ  22295.58334491 -.01141909  00000-0 -26125-1 0  9991,2 53426  53.2172 246.2599 0001192  89.8791  22.4545 15.44939885  1306,6809.691999999999,93.208,432.36800000000005,430.745,0.0
53426.0,STARLINK-4558,PAYLOAD,2022-10-22 22:00:00,15.44134477,0.0001291999999999,53.2168,244.6795,92.1186,74.6857,-0.027132,-0.0115267,0.0,0 STARLINK-4558,1 53426U 22097AQ  22295.91667824 -.01152670  00000-0 -27132-1 0  9993,2 53426  53.2168 244.6795 0001292  92.1186  74.6857 15.44134477  1306,6812.059,93.256,434.805,433.044,0.0
53426.0,STARLINK-4558,PAYLOAD,2022-10-23 00:00:02,15.43922281,0.0001227,53.2173,244.2848,96.1806,174.1582,-0.027018,-0.0114063,0.0,0 STARLINK-4558,1 53426U 22097AQ  22296.00002315 -.01140630  00000-0 -27018-1 0  9998,2 53426  53.2173 244.2848 0001227  96.1806 174.1582 15.43922281 12027,6812.684,93.269,435.384,433.713,0.0
53426.0,STARLINK-4558,PAYLOAD,2022-10-23 14:00:01,15.42500674,0.0001225,53.2174,241.5246,101.9048,170.9194,-0.028469,-0.01144862,0.0,0 STARLINK-4558,1 53426U 22097AQ  22296.58334491 -.01144862  00000-0 -28469-1 0  9996,2 53426  53.2174 241.5246 0001225 101.9048 170.9194 15.42500674  1300,6816.869000000002,93.355,439.569,437.899,0.0
53426.0,STARLINK-4558,PAYLOAD,2022-10-23 22:00:00,15.41700405,0.0001155999999999,53.2166,239.9504,98.4544,225.9038,-0.02972,-0.0116176,0.0,0 STARLINK-4558,1 53426U 22097AQ  22296.91667824 -.01161760  00000-0 -29720-1 0  9999,2 53426  53.2166 239.9504 0001156  98.4544 225.9038 15.41700405  1304,6819.228,93.403,441.881,440.304,0.0
53426.0,STARLINK-4558,PAYLOAD,2022-10-24 14:00:01,15.40056649,0.0001088,53.2173,236.8071,91.9216,332.5942,-0.0307529999999999,-0.01139903,0.0,0 STARLINK-4558,1 53426U 22097AQ  22297.58334491 -.01139903  00000-0 -30753-1 0  9996,2 53426  53.2173 236.8071 0001088  91.9216 332.5942 15.40056649  1307,6824.079000000002,93.503,446.686,445.202,0.0
53426.0,STARLINK-4558,PAYLOAD,2022-10-24 22:00:00,15.39261139,0.0001171999999999,53.2169,235.2386,92.0259,21.0886,-0.032318,-0.01164429,0.0,0 STARLINK-4558,1 53426U 22097AQ  22297.91667824 -.01164429  00000-0 -32318-1 0  9992,2 53426  53.2169 235.2386 0001172  92.0259  21.0886 15.39261139  1304,6826.43,93.551,449.095,447.495,0.0
53426.0,STARLINK-4558,PAYLOAD,2022-10-25 00:00:00,15.3903928,0.0001315999999999,53.2172,234.8471,94.6001,120.5222,-0.031771,-0.01138788,0.0,0 STARLINK-4558,1 53426U 22097AQ  22298.00001157 -.01138788  00000-0 -31771-1 0  9995,2 53426  53.2172 234.8471 0001316  94.6001 120.5222 15.39039280 12335,6827.0859999999975,93.565,449.849,448.05300000000005,0.0
53426.0,STARLINK-4558,PAYLOAD,2022-10-25 14:00:01,15.37614088,0.0001323,53.2174,232.1067,96.1925,111.2138,-0.03324,-0.01137114,0.0,0 STARLINK-4558,1 53426U 22097AQ  22298.58334491 -.01137114  00000-0 -33240-1 0  9993,2 53426  53.2174 232.1067 0001323  96.1925 111.2138 15.37614088  1300,6831.304,93.652,454.073,452.265,0.0
53426.0,STARLINK-4558,PAYLOAD,2022-10-25 22:00:01,15.3682042,0.0001235,53.2171,230.5443,95.1573,157.9771,-0.035003,-0.01164213,0.0,0 STARLINK-4558,1 53426U 22097AQ  22298.91668981 -.01164213  00000-0 -35003-1 0  9993,2 53426  53.2171 230.5443 0001235  95.1573 157.9771 15.36820420  1305,6833.656,93.7,456.365,454.677,0.0
53426.0,STARLINK-4558,PAYLOAD,2022-10-26 14:00:01,15.35174326,0.0001142,53.2176,227.4238,107.1855,234.3092,-0.036039,-0.01138869,0.0,0 STARLINK-4558,1 53426U 22097AQ  22299.58334491 -.01138869  00000-0 -36039-1 0  9991,2 53426  53.2176 227.4238 0001142 107.1855 234.3092 15.35174326  1303,6838.54,93.8,461.186,459.624,0.0
53426.0,STARLINK-4558,PAYLOAD,2022-10-26 22:00:00,15.3436194,0.0001113,53.2178,225.8673,90.6357,293.5987,-0.037051,-0.01140556,0.0,0 STARLINK-4558,1 53426U 22097AQ  22299.91667824 -.01140556  00000-0 -37051-1 0  9998,2 53426  53.2178 225.8673 0001113  90.6357 293.5987 15.34361940  1300,6840.953,93.85,463.58,462.057,0.0
53426.0,STARLINK-4558,PAYLOAD,2022-10-27 08:00:01,15.33348305,0.0001355,53.2167,223.9252,83.64,82.6423,-0.038419,-0.01144705,0.0,0 STARLINK-4558,1 53426U 22097AQ  22300.33334491 -.01144705  00000-0 -38419-1 0  9997,2 53426  53.2167 223.9252 0001355  83.6400  82.6423 15.33348305 12694,6843.968000000003,93.912,466.76,464.906,0.0
53426.0,STARLINK-4558,PAYLOAD,2022-10-27 14:00:01,15.32731671,0.0001198,53.2176,222.7583,87.0296,19.8179,-0.038855,-0.01136038,0.0,0 STARLINK-4558,1 53426U 22097AQ  22300.58335648 -.01136038  00000-0 -38855-1 0  9993,2 53426  53.2176 222.7583 0001198  87.0296  19.8179 15.32731671  1301,6845.803000000001,93.95,468.48800000000006,466.848,0.0
53426.0,STARLINK-4558,PAYLOAD,2022-10-27 22:00:00,15.31919314,0.0001312,53.2178,221.2077,87.1479,59.442,-0.039945,-0.01138145,0.0,0 STARLINK-4558,1 53426U 22097AQ  22300.91667824 -.01138145  00000-0 -39945-1 0  9996,2 53426  53.2178 221.2077 0001312  87.1479  59.4420 15.31919314  1307,6848.223000000001,94.0,470.987,469.19,0.0
53426.0,STARLINK-4558,PAYLOAD,2022-10-28 08:00:01,15.30903343,0.0001278,53.217,219.2721,104.6549,180.3816,-0.0413199999999999,-0.01140146,0.0,0 STARLINK-4558,1 53426U 22097AQ  22301.33335648 -.01140146  00000-0 -41320-1 0  9993,2 53426  53.2170 219.2721 0001278 104.6549 180.3816 15.30903343 12844,6851.253000000002,94.062,473.99300000000005,472.242,0.0
53426.0,STARLINK-4558,PAYLOAD,2022-10-28 14:00:01,15.30289953,0.0001330999999999,53.2175,218.1101,97.1369,126.1984,-0.041888,-0.01134429,0.0,0 STARLINK-4558,1 53426U 22097AQ  22301.58335648 -.01134429  00000-0 -41888-1 0  9996,2 53426  53.2175 218.1101 0001331  97.1369 126.1984 15.30289953  1302,6853.083000000001,94.1,475.861,474.036,0.0
53426.0,STARLINK-4558,PAYLOAD,2022-10-28 22:00:01,15.29487858,0.0001334,53.217,216.5657,102.2042,157.9985,-0.043626,-0.01150799,0.0,0 STARLINK-4558,1 53426U 22097AQ  22301.91668981 -.01150799  00000-0 -43626-1 0  9992,2 53426  53.2170 216.5657 0001334 102.2042 157.9985 15.29487858  1309,6855.479,94.149,478.259,476.43,0.0
